GLOBALSTAR M094         
1 39074U 13005C   24119.41089725 -.00000070  00000+0  18756-3 0  9992
2 39074  51.9985   4.9882 0001004  79.1987 280.8993 12.62265041519990
GLOBALSTAR M096         
1 39075U 13005D   24119.50318581 -.00000087  00000+0  92826-4 0  9997
2 39075  52.0089  52.8949 0000919  63.1087 296.9874 12.62264749518924
GLOBALSTAR M078         
1 39076U 13005E   24119.47736563 -.00000104  00000+0 -35852-5 0  9996
2 39076  51.9844 138.0539 0000947 359.1487   0.9377 12.62268446517543
GLOBALSTAR M095         
1 39077U 13005F   24119.42375957 -.00000101  00000+0  16260-4 0  9995
2 39077  51.9776 135.6141 0000785  33.5422 326.5494 12.62265824517399
GLOBALSTAR M087         
1 52888U 22064A   24119.41808292 -.00000061  00000+0  12765-3 0  9997
2 52888  51.9781  21.9223 0008742 236.7164 123.2899 13.37571551 90868
